NORAD_CAT_ID,OBJECT_NAME,OBJECT_TYPE,EPOCH,MEAN_MOTION,ECCENTRICITY,INCLINATION,RA_OF_ASC_NODE,ARG_OF_PERICENTER,MEAN_ANOMALY,BSTAR,MEAN_MOTION_DOT,MEAN_MOTION_DDOT,TLE_LINE0,TLE_LINE1,TLE_LINE2,SEMIMAJOR_AXIS,PERIOD,APOGEE,PERIGEE,DECAYED
53985.0,STARLINK-5147,PAYLOAD,2024-01-18 11:36:10,15.08865084,0.0002036,53.2159,121.3304,30.7335,329.3776,-0.00046002,-7.607e-05,0.0,0 STARLINK-5147,1 53985U 22125X   24018.48345329 -.00007607  00000-0 -46002-3 0  9992,2 53985  53.2159 121.3304 0002036  30.7335 329.3776 15.08865084 71597,6917.804,95.436,541.077,538.26,0.0
53985.0,STARLINK-5147,PAYLOAD,2024-01-18 13:11:33,15.088319,0.0001642,53.2165,121.0284,135.8157,224.2966,1.8468e-05,6e-08,0.0,0 STARLINK-5147,1 53985U 22125X   24018.54969588  .00000006  00000-0  18468-4 0  9998,2 53985  53.2165 121.0284 0001642 135.8157 224.2966 15.08831900 71537,6917.905,95.438,540.906,538.634,0.0
53985.0,STARLINK-5147,PAYLOAD,2024-01-19 11:26:57,15.08853759,0.0003037,53.2174,116.875,37.0948,323.0253,0.00014516,2.023e-05,0.0,0 STARLINK-5147,1 53985U 22125X   24019.47704956  .00002023  00000-0  14516-3 0  9997,2 53985  53.2174 116.8750 0003037  37.0948 323.0253 15.08853759 71744,6917.838,95.437,541.804,537.602,0.0
53985.0,STARLINK-5147,PAYLOAD,2024-01-19 13:02:19,15.08858395,0.0001787,53.2166,116.5705,68.5365,291.5818,0.00020801,3.026e-05,0.0,0 STARLINK-5147,1 53985U 22125X   24019.54327961  .00003026  00000-0  20801-3 0  9990,2 53985  53.2166 116.5705 0001787  68.5365 291.5818 15.08858395 71684,6917.824,95.436,540.925,538.453,0.0
53985.0,STARLINK-5147,PAYLOAD,2024-01-20 11:17:44,15.08835843,0.000148,53.2168,112.4026,140.9417,219.1682,0.00013321,1.832e-05,0.0,0 STARLINK-5147,1 53985U 22125X   24020.47065068  .00001832  00000-0  13321-3 0  9993,2 53985  53.2168 112.4026 0001480 140.9417 219.1682 15.08835843 71891,6917.893,95.438,540.782,538.734,0.0
53985.0,STARLINK-5147,PAYLOAD,2024-01-20 12:53:07,15.08838079,0.0001517,53.2168,112.105,141.4026,218.7074,0.00015071,2.111e-05,0.0,0 STARLINK-5147,1 53985U 22125X   24020.53688905  .00002111  00000-0  15071-3 0  9996,2 53985  53.2168 112.1050 0001517 141.4026 218.7074 15.08838079 71836,6917.886,95.438,540.801,538.702,0.0
53985.0,STARLINK-5147,PAYLOAD,2024-01-20 16:03:53,15.08838621,0.0001552,53.2167,111.5103,142.9843,217.1256,0.00014959,2.093e-05,0.0,0 STARLINK-5147,1 53985U 22125X   24020.66936881  .00002093  00000-0  14959-3 0  9992,2 53985  53.2167 111.5103 0001552 142.9843 217.1256 15.08838621 71859,6917.885,95.438,540.823,538.676,0.0
53985.0,STARLINK-5147,PAYLOAD,2024-01-21 06:22:22,15.08838732,0.0001341,53.2176,108.8315,119.0896,241.0231,-1.1296e-06,-3.06e-06,0.0,0 STARLINK-5147,1 53985U 22125X   24021.26553525 -.00000306  00000-0 -11296-5 0  9999,2 53985  53.2176 108.8315 0001341 119.0896 241.0231 15.08838732 71944,6917.884,95.438,540.677,538.822,0.0
53985.0,STARLINK-5147,PAYLOAD,2024-01-21 11:08:31,15.08850543,0.000139,53.2179,107.94,112.9663,247.1476,-0.0001196,-2.191e-05,0.0,0 STARLINK-5147,1 53985U 22125X   24021.46424941 -.00002191  00000-0 -11960-3 0  9990,2 53985  53.2179 107.9400 0001390 112.9663 247.1476 15.08850543 71975,6917.848,95.437,540.675,538.752,0.0
53985.0,STARLINK-5147,PAYLOAD,2024-01-22 10:59:18,15.08848256,0.0001176,53.218,103.4795,111.6845,248.4272,-7.136e-05,-1.424e-05,0.0,0 STARLINK-5147,1 53985U 22125X   24022.45785156 -.00001424  00000-0 -71360-4 0  9997,2 53985  53.2180 103.4795 0001176 111.6845 248.4272 15.08848256 72196,6917.855,95.437,540.534,538.907,0.0
53985.0,STARLINK-5147,PAYLOAD,2024-01-23 12:25:28,15.08848508,0.0001322,53.217,98.7238,106.5698,253.544,0.00012021,1.626e-05,0.0,0 STARLINK-5147,1 53985U 22125X   24023.51768792  .00001626  00000-0  12021-3 0  9992,2 53985  53.2170  98.7238 0001322 106.5698 253.5440 15.08848508 72357,6917.854,95.437,540.634,538.805,0.0
53985.0,STARLINK-5147,PAYLOAD,2024-01-24 12:16:16,15.08838226,0.0001587,53.2189,94.2652,84.0955,276.0218,6.4167e-05,7.33e-06,0.0,0 STARLINK-5147,1 53985U 22125X   24024.51129999  .00000733  00000-0  64167-4 0  9990,2 53985  53.2189  94.2652 0001587  84.0955 276.0218 15.08838226 72503,6917.886,95.438,540.849,538.653,0.0
53985.0,STARLINK-5147,PAYLOAD,2024-01-25 10:31:40,15.08844643,0.0001587,53.2171,90.1069,78.6481,281.469,1.3313e-05,-7.6e-07,0.0,0 STARLINK-5147,1 53985U 22125X   24025.43865935 -.00000076  00000-0  13313-4 0  9997,2 53985  53.2171  90.1069 0001587  78.6481 281.4690 15.08844643 72575,6917.866,95.437,540.829,538.633,0.0
53985.0,STARLINK-5147,PAYLOAD,2024-01-26 10:22:26,15.08847929,0.0001544,53.2168,85.6449,87.8853,272.2316,0.00013675,1.89e-05,0.0,0 STARLINK-5147,1 53985U 22125X   24026.43225281  .00001890  00000-0  13675-3 0  9996,2 53985  53.2168  85.6449 0001544  87.8853 272.2316 15.08847929 72797,6917.856,95.437,540.789,538.653,0.0
53985.0,STARLINK-5147,PAYLOAD,2024-01-27 10:13:15,15.08804037,0.0001721,53.2184,81.1813,112.9713,247.146,0.00050739,7.788e-05,0.0,0 STARLINK-5147,1 53985U 22125X   24027.42587456  .00007788  00000-0  50739-3 0  9995,2 53985  53.2184  81.1813 0001721 112.9713 247.1460 15.08804037 72944,6917.99,95.44,541.046,538.665,0.0
53985.0,STARLINK-5147,PAYLOAD,2024-01-27 13:24:00,15.08838912,0.0001684,53.2176,80.5849,110.6346,249.4827,2.2092e-05,6.4e-07,0.0,0 STARLINK-5147,1 53985U 22125X   24027.55834029  .00000064  00000-0  22092-4 0  9992,2 53985  53.2176  80.5849 0001684 110.6346 249.4827 15.08838912 72897,6917.884,95.438,540.914,538.584,0.0
53985.0,STARLINK-5147,PAYLOAD,2024-01-28 10:04:01,15.08839179,0.0001556,53.2175,76.7186,103.1616,256.955,-3.2061e-05,-7.98e-06,0.0,0 STARLINK-5147,1 53985U 22125X   24028.41946340 -.00000798  00000-0 -32061-4 0  9991,2 53985  53.2175  76.7186 0001556 103.1616 256.9550 15.08839179 73020,6917.883,95.438,540.824,538.671,0.0
53985.0,STARLINK-5147,PAYLOAD,2024-01-29 09:54:48,15.08837708,0.0001587,53.2179,72.258,99.3166,260.8006,0.00010559,1.393e-05,0.0,0 STARLINK-5147,1 53985U 22125X   24029.41306345  .00001393  00000-0  10559-3 0  9994,2 53985  53.2179  72.2580 0001587  99.3166 260.8006 15.08837708 73243,6917.887,95.438,540.85,538.655,0.0
53985.0,STARLINK-5147,PAYLOAD,2024-01-30 09:45:35,15.08841,0.0001591,53.2181,67.8014,101.9702,258.1468,8.9839e-05,1.142e-05,0.0,0 STARLINK-5147,1 53985U 22125X   24030.40666486  .00001142  00000-0  89839-4 0  9990,2 53985  53.2181  67.8014 0001591 101.9702 258.1468 15.08841000 73320,6917.877,95.437,540.843,538.642,0.0
53985.0,STARLINK-5147,PAYLOAD,2024-01-31 11:11:45,15.08843684,0.0001558,53.218,63.0406,93.5281,266.589,7.8333e-05,9.59e-06,0.0,0 STARLINK-5147,1 53985U 22125X   24031.46650368  .00000959  00000-0  78333-4 0  9991,2 53985  53.2180  63.0406 0001558  93.5281 266.5890 15.08843684 73550,6917.869,95.437,540.812,538.656,0.0
53985.0,STARLINK-5147,PAYLOAD,2024-02-01 01:30:14,15.08839929,0.0001721,53.2183,60.3696,100.6884,259.4302,1.5727e-05,-3.8e-07,0.0,0 STARLINK-5147,1 53985U 22125X   24032.06266848 -.00000038  00000-0  15727-4 0  9991,2 53985  53.2183  60.3696 0001721 100.6884 259.4302 15.08839929 73641,6917.881,95.438,540.936,538.555,0.0
53985.0,STARLINK-5147,PAYLOAD,2024-02-01 11:02:33,15.08838741,0.0001432,53.2174,58.5809,95.8435,264.272,1.9436e-05,2.1e-07,0.0,0 STARLINK-5147,1 53985U 22125X   24032.46010944  .00000021  00000-0  19436-4 0  9991,2 53985  53.2174  58.5809 0001432  95.8435 264.2720 15.08838741 73630,6917.884,95.438,540.74,538.759,0.0
53985.0,STARLINK-5147,PAYLOAD,2024-02-02 07:42:33,15.08847364,0.00016,53.2174,54.7167,77.4781,282.639,7.0787e-05,8.39e-06,0.0,0 STARLINK-5147,1 53985U 22125X   24033.32122350  .00000839  00000-0  70787-4 0  9995,2 53985  53.2174  54.7167 0001600  77.4781 282.6390 15.08847364 73832,6917.858,95.437,540.83,538.616,0.0
53985.0,STARLINK-5147,PAYLOAD,2024-02-03 04:22:35,15.08836723,0.0001617,53.2175,50.851,91.7027,268.415,6.2174e-05,7.02e-06,0.0,0 STARLINK-5147,1 53985U 22125X   24034.18236061  .00000702  00000-0  62174-4 0  9995,2 53985  53.2175  50.8510 0001617  91.7027 268.4150 15.08836723 73969,6917.89,95.438,540.874,538.637,0.0
53985.0,STARLINK-5147,PAYLOAD,2024-02-03 05:57:59,15.08837508,0.0001651,53.2177,50.5538,91.351,268.7671,7.0859e-05,8.4e-06,0.0,0 STARLINK-5147,1 53985U 22125X   24034.24860087  .00000840  00000-0  70859-4 0  9995,2 53985  53.2177  50.5538 0001651  91.3510 268.7671 15.08837508 73906,6917.888,95.438,540.895,538.611,0.0
53985.0,STARLINK-5147,PAYLOAD,2024-02-04 04:13:21,15.088547,0.0001489,53.2172,46.3891,101.5878,258.5281,0.00011037,1.47e-05,0.0,0 STARLINK-5147,1 53985U 22125X   24035.17594736  .00001470  00000-0  11037-3 0  9995,2 53985  53.2172  46.3891 0001489 101.5878 258.5281 15.08854700 74117,6917.835,95.437,540.731,538.67,0.0
53985.0,STARLINK-5147,PAYLOAD,2024-02-04 10:34:54,15.08844625,0.0001278,53.2172,45.1983,103.4107,256.7028,0.00041068,6.255e-05,0.0,0 STARLINK-5147,1 53985U 22125X   24035.44090648  .00006255  00000-0  41068-3 0  9991,2 53985  53.2172  45.1983 0001278 103.4107 256.7028 15.08844625 74088,6917.866,95.437,540.615,538.847,0.0
53985.0,STARLINK-5147,PAYLOAD,2024-02-05 04:04:09,15.08850535,0.0002212,53.2162,41.9216,128.5941,231.525,3.8401e-05,3.23e-06,0.0,0 STARLINK-5147,1 53985U 22125X   24036.16955072  .00000323  00000-0  38401-4 0  9990,2 53985  53.2162  41.9216 0002212 128.5941 231.5250 15.08850535 74268,6917.848,95.437,541.243,538.183,0.0
53985.0,STARLINK-5147,PAYLOAD,2024-02-05 07:14:55,15.08848614,0.0001432,53.2174,41.3347,95.7289,264.3867,7.8681e-05,9.65e-06,0.0,0 STARLINK-5147,1 53985U 22125X   24036.30203324  .00000965  00000-0  78681-4 0  9998,2 53985  53.2174  41.3347 0001432  95.7289 264.3867 15.08848614 74211,6917.854,95.437,540.71,538.728,0.0
53985.0,STARLINK-5147,PAYLOAD,2024-02-06 03:54:56,15.08849195,0.0001424,53.2174,37.4717,92.4749,267.6406,-2.3313e-05,-6.59e-06,0.0,0 STARLINK-5147,1 53985U 22125X   24037.16315185 -.00000659  00000-0 -23313-4 0  9996,2 53985  53.2174  37.4717 0001424  92.4749 267.6406 15.08849195 74416,6917.852,95.437,540.702,538.732,0.0
